[{"OBJECT_NAME":"FENGYUN 1C DEB","OBJECT_ID":"1999-025EQB","EPOCH":"2026-03-11T02:20:02.045760","MEAN_MOTION":13.77666619,"ECCENTRICITY":0.02045928,"INCLINATION":98.5984,"RA_OF_ASC_NODE":118.5318,"ARG_OF_PERICENTER":347.9544,"MEAN_ANOMALY":11.6757,"EPHEMERIS_TYPE":0,"CLASSIFICATION_TYPE":"U","NORAD_CAT_ID":38130,"ELEMENT_SET_NO":999,"REV_AT_EPOCH":70499,"BSTAR":0.0015193297,"MEAN_MOTION_DOT":1.732e-5,"MEAN_MOTION_DDOT":0},{"OBJECT_NAME":"FENGYUN 1C DEB","OBJECT_ID":"1999-025EQG","EPOCH":"2026-03-12T23:16:35.827968","MEAN_MOTION":14.25571041,"ECCENTRICITY":0.02221449,"INCLINATION":98.6438,"RA_OF_ASC_NODE":132.6307,"ARG_OF_PERICENTER":167.9959,"MEAN_ANOMALY":192.664,"EPHEMERIS_TYPE":0,"CLASSIFICATION_TYPE":"U","NORAD_CAT_ID":38135,"ELEMENT_SET_NO":999,"REV_AT_EPOCH":62326,"BSTAR":0.00057554492,"MEAN_MOTION_DOT":1.717e-5,"MEAN_MOTION_DDOT":0},{"OBJECT_NAME":"FENGYUN 1C DEB","OBJECT_ID":"1999-025EQJ","EPOCH":"2026-03-09T22:26:30.301152","MEAN_MOTION":14.06253036,"ECCENTRICITY":0.0046225,"INCLINATION":98.8512,"RA_OF_ASC_NODE":114.8041,"ARG_OF_PERICENTER":182.8615,"MEAN_ANOMALY":177.2295,"EPHEMERIS_TYPE":0,"CLASSIFICATION_TYPE":"U","NORAD_CAT_ID":38137,"ELEMENT_SET_NO":999,"REV_AT_EPOCH":64934,"BSTAR":0.00019901,"MEAN_MOTION_DOT":2.88e-6,"MEAN_MOTION_DDOT":0},{"OBJECT_NAME":"FENGYUN 1C DEB","OBJECT_ID":"1999-025EQQ","EPOCH":"2026-03-07T22:03:33.759936","MEAN_MOTION":14.05100994,"ECCENTRICITY":0.00548365,"INCLINATION":99.0143,"RA_OF_ASC_NODE":127.3534,"ARG_OF_PERICENTER":345.4855,"MEAN_ANOMALY":14.4735,"EPHEMERIS_TYPE":0,"CLASSIFICATION_TYPE":"U","NORAD_CAT_ID":38143,"ELEMENT_SET_NO":999,"REV_AT_EPOCH":61479,"BSTAR":0.00060748539,"MEAN_MOTION_DOT":9.48e-6,"MEAN_MOTION_DDOT":0},{"OBJECT_NAME":"FENGYUN 1C DEB","OBJECT_ID":"1999-025EQU","EPOCH":"2026-02-21T20:39:15.573024","MEAN_MOTION":14.23667551,"ECCENTRICITY":0.005038,"INCLINATION":98.5592,"RA_OF_ASC_NODE":70.1558,"ARG_OF_PERICENTER":92.4879,"MEAN_ANOMALY":268.2069,"EPHEMERIS_TYPE":0,"CLASSIFICATION_TYPE":"U","NORAD_CAT_ID":38147,"ELEMENT_SET_NO":999,"REV_AT_EPOCH":61399,"BSTAR":0.00049243,"MEAN_MOTION_DOT":1.096e-5,"MEAN_MOTION_DDOT":0},{"OBJECT_NAME":"FENGYUN 1C DEB","OBJECT_ID":"1999-025EQW","EPOCH":"2026-02-26T04:52:43.538016","MEAN_MOTION":14.26032443,"ECCENTRICITY":0.0076403,"INCLINATION":98.3645,"RA_OF_ASC_NODE":50.9878,"ARG_OF_PERICENTER":300.8645,"MEAN_ANOMALY":58.5036,"EPHEMERIS_TYPE":0,"CLASSIFICATION_TYPE":"U","NORAD_CAT_ID":38149,"ELEMENT_SET_NO":999,"REV_AT_EPOCH":71563,"BSTAR":0.00025462,"MEAN_MOTION_DOT":5.85e-6,"MEAN_MOTION_DDOT":0},{"OBJECT_NAME":"FENGYUN 1C DEB","OBJECT_ID":"1999-025ERC","EPOCH":"2026-03-12T23:12:25.619616","MEAN_MOTION":14.26354819,"ECCENTRICITY":0.00940782,"INCLINATION":98.442,"RA_OF_ASC_NODE":338.0347,"ARG_OF_PERICENTER":225.697,"MEAN_ANOMALY":133.6469,"EPHEMERIS_TYPE":0,"CLASSIFICATION_TYPE":"U","NORAD_CAT_ID":38155,"ELEMENT_SET_NO":999,"REV_AT_EPOCH":65061,"BSTAR":0.0020441402,"MEAN_MOTION_DOT":5.107e-5,"MEAN_MOTION_DDOT":0},{"OBJECT_NAME":"FENGYUN 1C DEB","OBJECT_ID":"1999-025ERE","EPOCH":"2026-03-14T00:43:37.093152","MEAN_MOTION":14.22398825,"ECCENTRICITY":0.0270592,"INCLINATION":99.6559,"RA_OF_ASC_NODE":353.7235,"ARG_OF_PERICENTER":217.8923,"MEAN_ANOMALY":140.2935,"EPHEMERIS_TYPE":0,"CLASSIFICATION_TYPE":"U","NORAD_CAT_ID":38157,"ELEMENT_SET_NO":999,"REV_AT_EPOCH":77545,"BSTAR":0.00062418185,"MEAN_MOTION_DOT":1.961e-5,"MEAN_MOTION_DDOT":0},{"OBJECT_NAME":"FENGYUN 1C DEB","OBJECT_ID":"1999-025ERG","EPOCH":"2026-03-10T22:40:16.458816","MEAN_MOTION":14.03608969,"ECCENTRICITY":0.0056959,"INCLINATION":99.3099,"RA_OF_ASC_NODE":328.7115,"ARG_OF_PERICENTER":96.9626,"MEAN_ANOMALY":263.8023,"EPHEMERIS_TYPE":0,"CLASSIFICATION_TYPE":"U","NORAD_CAT_ID":38159,"ELEMENT_SET_NO":999,"REV_AT_EPOCH":84349,"BSTAR":0.00049778,"MEAN_MOTION_DOT":7.46e-6,"MEAN_MOTION_DDOT":0},{"OBJECT_NAME":"FENGYUN 1C DEB","OBJECT_ID":"1999-025ERL","EPOCH":"2026-03-08T21:10:39.083520","MEAN_MOTION":14.06163876,"ECCENTRICITY":0.00749376,"INCLINATION":99.1189,"RA_OF_ASC_NODE":110.0418,"ARG_OF_PERICENTER":4.1791,"MEAN_ANOMALY":355.9986,"EPHEMERIS_TYPE":0,"CLASSIFICATION_TYPE":"U","NORAD_CAT_ID":38163,"ELEMENT_SET_NO":999,"REV_AT_EPOCH":25752,"BSTAR":0.00084972539,"MEAN_MOTION_DOT":1.388e-5,"MEAN_MOTION_DDOT":0},{"OBJECT_NAME":"FENGYUN 1C DEB","OBJECT_ID":"1999-025ERP","EPOCH":"2026-03-11T18:21:37.725408","MEAN_MOTION":14.32565063,"ECCENTRICITY":0.00565575,"INCLINATION":99.0729,"RA_OF_ASC_NODE":182.8743,"ARG_OF_PERICENTER":147.1869,"MEAN_ANOMALY":213.2846,"EPHEMERIS_TYPE":0,"CLASSIFICATION_TYPE":"U","NORAD_CAT_ID":38166,"ELEMENT_SET_NO":999,"REV_AT_EPOCH":65046,"BSTAR":0.0033102576,"MEAN_MOTION_DOT":9.107e-5,"MEAN_MOTION_DDOT":0},{"OBJECT_NAME":"FENGYUN 1C DEB","OBJECT_ID":"1999-025ERS","EPOCH":"2026-03-10T04:27:44.587872","MEAN_MOTION":14.74914265,"ECCENTRICITY":0.00286537,"INCLINATION":98.9857,"RA_OF_ASC_NODE":57.6167,"ARG_OF_PERICENTER":150.5125,"MEAN_ANOMALY":209.7705,"EPHEMERIS_TYPE":0,"CLASSIFICATION_TYPE":"U","NORAD_CAT_ID":38169,"ELEMENT_SET_NO":999,"REV_AT_EPOCH":62556,"BSTAR":0.0028977946,"MEAN_MOTION_DOT":0.00019574,"MEAN_MOTION_DDOT":0},{"OBJECT_NAME":"FENGYUN 1C DEB","OBJECT_ID":"1999-025ERW","EPOCH":"2026-03-13T04:34:47.501184","MEAN_MOTION":14.38078893,"ECCENTRICITY":0.0158561,"INCLINATION":98.9979,"RA_OF_ASC_NODE":341.664,"ARG_OF_PERICENTER":206.9803,"MEAN_ANOMALY":152.3075,"EPHEMERIS_TYPE":0,"CLASSIFICATION_TYPE":"U","NORAD_CAT_ID":38173,"ELEMENT_SET_NO":999,"REV_AT_EPOCH":61943,"BSTAR":0.00080021599,"MEAN_MOTION_DOT":2.751e-5,"MEAN_MOTION_DDOT":0},{"OBJECT_NAME":"FENGYUN 1C DEB","OBJECT_ID":"1999-025ESB","EPOCH":"2026-03-02T10:00:53.944128","MEAN_MOTION":13.94641295,"ECCENTRICITY":0.02258203,"INCLINATION":98.6077,"RA_OF_ASC_NODE":132.8891,"ARG_OF_PERICENTER":288.006,"MEAN_ANOMALY":69.6612,"EPHEMERIS_TYPE":0,"CLASSIFICATION_TYPE":"U","NORAD_CAT_ID":38492,"ELEMENT_SET_NO":999,"REV_AT_EPOCH":57114,"BSTAR":0.0034742976,"MEAN_MOTION_DOT":5.706e-5,"MEAN_MOTION_DDOT":0},{"OBJECT_NAME":"FENGYUN 1C DEB","OBJECT_ID":"1999-025ESC","EPOCH":"2026-03-14T02:29:46.636800","MEAN_MOTION":13.6243112,"ECCENTRICITY":0.0427507,"INCLINATION":99.0941,"RA_OF_ASC_NODE":31.5835,"ARG_OF_PERICENTER":8.2451,"MEAN_ANOMALY":352.5436,"EPHEMERIS_TYPE":0,"CLASSIFICATION_TYPE":"U","NORAD_CAT_ID":38493,"ELEMENT_SET_NO":999,"REV_AT_EPOCH":57742,"BSTAR":0.00071900018,"MEAN_MOTION_DOT":9.92e-6,"MEAN_MOTION_DDOT":0},{"OBJECT_NAME":"FENGYUN 1C DEB","OBJECT_ID":"1999-025ESD","EPOCH":"2026-03-14T13:38:02.241600","MEAN_MOTION":14.01880476,"ECCENTRICITY":0.03795784,"INCLINATION":98.4409,"RA_OF_ASC_NODE":22.0674,"ARG_OF_PERICENTER":109.5738,"MEAN_ANOMALY":254.682,"EPHEMERIS_TYPE":0,"CLASSIFICATION_TYPE":"U","NORAD_CAT_ID":38494,"ELEMENT_SET_NO":999,"REV_AT_EPOCH":8440,"BSTAR":0.0025801312,"MEAN_MOTION_DOT":7.374e-5,"MEAN_MOTION_DDOT":0}]
