FENGYUN 1C DEB          
1 38130U 99025EQB 26070.09724590  .00001732  00000+0  15193-2 0  9994
2 38130  98.5984 118.5318 0204592 347.9544  11.6757 13.77666619704993
FENGYUN 1C DEB          
1 38135U 99025EQG 26071.96985912  .00001717  00000+0  57554-3 0  9994
2 38135  98.6438 132.6307 0222144 167.9959 192.6640 14.25571041623260
FENGYUN 1C DEB          
1 38137U 99025EQJ 26068.93507293  .00000288  00000+0  19901-3 0  9997
2 38137  98.8512 114.8041 0046225 182.8615 177.2295 14.06253036649345
FENGYUN 1C DEB          
1 38143U 99025EQQ 26066.91914074  .00000948  00000+0  60749-3 0  9998
2 38143  99.0143 127.3534 0054836 345.4855  14.4735 14.05100994614796
FENGYUN 1C DEB          
1 38147U 99025EQU 26052.86059691  .00001096  00000+0  49243-3 0  9997
2 38147  98.5592  70.1558 0050380  92.4879 268.2069 14.23667551613995
FENGYUN 1C DEB          
1 38149U 99025EQW 26057.20328169  .00000585  00000+0  25462-3 0  9990
2 38149  98.3645  50.9878 0076403 300.8645  58.5036 14.26032443715633
FENGYUN 1C DEB          
1 38155U 99025ERC 26071.96696319  .00005107  00000+0  20441-2 0  9997
2 38155  98.4420 338.0347 0094078 225.6970 133.6469 14.26354819650611
FENGYUN 1C DEB          
1 38157U 99025ERE 26073.03029043  .00001961  00000+0  62418-3 0  9998
2 38157  99.6559 353.7235 0270592 217.8923 140.2935 14.22398825775450
FENGYUN 1C DEB          
1 38159U 99025ERG 26069.94463494  .00000746  00000+0  49778-3 0  9991
2 38159  99.3099 328.7115 0056959  96.9626 263.8023 14.03608969843494
FENGYUN 1C DEB          
1 38163U 99025ERL 26067.88239680  .00001388  00000+0  84973-3 0  9994
2 38163  99.1189 110.0418 0074937   4.1791 355.9986 14.06163876257525
FENGYUN 1C DEB          
1 38166U 99025ERP 26070.76501997  .00009107  00000+0  33103-2 0  9996
2 38166  99.0729 182.8743 0056557 147.1869 213.2846 14.32565063650461
FENGYUN 1C DEB          
1 38169U 99025ERS 26069.18593273  .00019574  00000+0  28978-2 0  9994
2 38169  98.9857  57.6167 0028653 150.5125 209.7705 14.74914265625567
FENGYUN 1C DEB          
1 38173U 99025ERW 26072.19082756  .00002751  00000+0  80022-3 0  9991
2 38173  98.9979 341.6640 0158561 206.9803 152.3075 14.38078893619430
FENGYUN 1C DEB          
1 38492U 99025ESB 26061.41729102  .00005706  00000+0  34743-2 0  9992
2 38492  98.6077 132.8891 0225820 288.0060  69.6612 13.94641295571142
FENGYUN 1C DEB          
1 38493U 99025ESC 26073.10401200  .00000992  00000+0  71900-3 0  9997
2 38493  99.0941  31.5835 0427507   8.2451 352.5436 13.62431120577427
FENGYUN 1C DEB          
1 38494U 99025ESD 26073.56808150  .00007374  00000+0  25801-2 0  9992
2 38494  98.4409  22.0674 0379578 109.5738 254.6820 14.01880476 84409
